[{"OBJECT_NAME":"STARLINK-4536","OBJECT_ID":"2022-111L","EPOCH":"2026-03-09T22:19:48.489312","MEAN_MOTION":15.0883542,"ECCENTRICITY":0.00019402,"INCLINATION":53.2167,"RA_OF_ASC_NODE":272.9599,"ARG_OF_PERICENTER":102.1677,"MEAN_ANOMALY":257.9533,"EPHEMERIS_TYPE":0,"CLASSIFICATION_TYPE":"U","NORAD_CAT_ID":53783,"ELEMENT_SET_NO":999,"REV_AT_EPOCH":19373,"BSTAR":3.9163344e-5,"MEAN_MOTION_DOT":3.35e-6,"MEAN_MOTION_DDOT":0},{"OBJECT_NAME":"FENGYUN 1C DEB","OBJECT_ID":"1999-025CHJ","EPOCH":"2026-03-08T11:31:09.458976","MEAN_MOTION":14.95691878,"ECCENTRICITY":0.01420749,"INCLINATION":98.9647,"RA_OF_ASC_NODE":255.4325,"ARG_OF_PERICENTER":95.8243,"MEAN_ANOMALY":265.919,"EPHEMERIS_TYPE":0,"CLASSIFICATION_TYPE":"U","NORAD_CAT_ID":31820,"ELEMENT_SET_NO":999,"REV_AT_EPOCH":99536,"BSTAR":0.0019551569,"MEAN_MOTION_DOT":0.00026677,"MEAN_MOTION_DDOT":0}]
